OBJECT_NAME,OBJECT_ID,EPOCH,MEAN_MOTION,ECCENTRICITY,INCLINATION,RA_OF_ASC_NODE,ARG_OF_PERICENTER,MEAN_ANOMALY,EPHEMERIS_TYPE,CLASSIFICATION_TYPE,NORAD_CAT_ID,ELEMENT_SET_NO,REV_AT_EPOCH,BSTAR,MEAN_MOTION_DOT,MEAN_MOTION_DDOT
SENTINEL-6A,2020-086A,2026-07-10T02:49:45.204384,12.80930082,.00078145,66.0414,87.4266,269.9813,90.0306,0,U,46984,999,26326,-.35327187E-4,-.69E-6,0
CAS500-1,2021-022A,2026-07-10T15:04:38.780832,15.20150800,.00046998,97.3876,86.4041,184.1207,175.9990,0,U,47932,999,29432,.17130693E-3,.3638E-4,0
GAOFEN-12 02,2021-026A,2026-07-10T14:43:47.048736,14.80313936,.00055531,97.9931,189.6995,144.4040,215.7543,0,U,48079,999,28522,.31696824E-4,.189E-5,0
PLEIADES NEO 3,2021-034A,2026-07-10T14:51:54.544320,14.81675926,.00013284,97.8937,266.0490,93.0113,267.1252,0,U,48268,999,28112,.86659683E-4,.63E-5,0
PLEIADES NEO 4,2021-073E,2026-07-10T14:03:16.265088,14.81675781,.00013655,97.8936,266.0120,92.1185,268.0184,0,U,49070,999,26483,.16297342E-3,.1231E-4,0
LANDSAT 9,2021-088A,2026-07-10T03:10:26.164992,14.57112869,.00011681,98.2271,261.0310,90.1172,270.0160,0,U,49260,999,25434,.49962337E-4,.18E-5,0
CSG-2,2022-008A,2026-07-10T13:53:23.530848,14.82146279,.0001517,97.8897,14.8378,85.4772,274.6614,0,U,51444,999,24005,-.32465255E-4,-.311E-5,0
GAOFEN-12 03,2022-069A,2026-07-10T13:55:19.590240,14.80071218,.00024868,97.8252,78.8575,78.1818,281.9673,0,U,52912,999,21807,.8524836E-4,.595E-5,0
SWOT,2022-173A,2026-07-10T13:38:07.982880,14.00172069,.00003039,77.6106,3.7446,74.9339,285.1846,0,U,54754,999,18242,.30713069E-4,.43E-6,0
GAOFEN-12 04,2023-123A,2026-07-10T14:22:21.275040,14.79770099,.00037306,97.9106,109.2682,59.8323,300.3258,0,U,57654,999,15609,.78220169E-4,.537E-5,0
PARS 1,2024-039Q,2026-07-10T14:47:06.441792,15.46222826,.00103688,97.4831,173.2831,41.6953,318.5084,0,U,59065,999,13226,.16515392E-3,.8038E-4,0
RESURS-P 4,2024-061A,2026-07-10T15:26:34.228608,15.32263612,.00032412,97.2754,139.1364,96.6267,263.5344,0,U,59371,999,12735,.64910211E-4,.1946E-4,0
LEGION 1,2024-081A,2026-07-10T13:57:02.373408,15.16825007,.00077103,97.5013,269.1899,289.0393,71.0005,0,U,59625,999,12108,.11616545E-3,.2217E-4,0
LEGION 2,2024-081B,2026-07-10T13:05:42.104544,15.16803757,.00099869,97.5012,269.2515,251.7459,108.2687,0,U,59626,999,12108,.11889201E-3,.227E-4,0
ALOS-4 (DAICHI-4),2024-123A,2026-07-10T13:25:40.499328,14.79473691,.00016136,97.9220,288.4000,97.9805,262.1590,0,U,60182,999,10933,.11697063E-3,.822E-5,0
LEGION 3,2024-146A,2026-07-10T14:11:05.374752,15.15637578,.00086309,45.0014,265.0672,309.9057,50.1062,0,U,60452,999,10557,.11980783E-3,.2054E-4,0
LEGION 4,2024-146B,2026-07-09T22:21:42.172704,15.16216301,.00114513,45.0026,0.4677,78.8692,281.3474,0,U,60453,999,10432,.17329106E-3,.3144E-4,0
SENTINEL-2C,2024-157A,2026-07-10T02:37:50.511360,14.30814768,.00009466,98.5685,265.5666,98.1407,261.9883,0,U,60989,999,9626,.32183953E-4,.41E-6,0
IONOSFERA-M 1,2024-199A,2026-07-10T14:41:41.962272,14.22758460,.00022052,98.7143,64.5339,78.8731,281.2695,0,U,61735,999,13103,.24987502E-4,.12E-6,0
IONOSFERA-M 2,2024-199B,2026-07-10T13:49:44.099040,14.22761858,.00003595,98.7142,64.4086,106.0240,254.0978,0,U,61736,999,13415,.29571418E-4,.22E-6,0
PRSC-EO1,2025-012A,2026-07-10T14:20:33.483264,15.17746335,.00065502,97.4220,263.5990,163.4141,196.7308,0,U,62725,999,8174,.23012061E-3,.458E-4,0
BIOMASS,2025-090A,2026-07-09T22:41:26.733120,14.67535603,.00013835,98.0728,17.9248,92.7222,267.4141,0,U,63772,999,6402,.12425381E-3,.657E-5,0
GOSAT-GW (IBUKI GW),2025-141A,2026-07-10T13:50:00.172896,14.67554128,.00014598,98.0566,128.5133,83.5655,276.5716,0,U,64694,999,5527,-.1388316E-5,-.56E-6,0
IONOSFERA-M 3,2025-155A,2026-07-10T14:45:23.168736,14.21490321,.00021482,98.6037,152.9317,119.5084,240.6308,0,U,64876,999,4973,.26427761E-4,.15E-6,0
IONOSFERA-M 4,2025-155B,2026-07-10T13:54:08.457120,14.21492742,.00017505,98.6036,152.8141,104.1677,255.9696,0,U,64877,999,4972,.2621187E-4,.14E-6,0
MICROCARB,2025-156A,2026-07-09T16:59:34.891872,14.72881364,.00171873,98.0075,267.4872,188.1611,171.9320,0,U,64899,999,5128,.60786372E-4,.34E-5,0
CO3D 3,2025-156B,2026-07-10T13:18:47.889216,15.20213838,.00018386,97.4336,269.9116,100.0007,260.1436,0,U,64900,999,5308,.13010655E-3,.2751E-4,0
CO3D 4,2025-156C,2026-07-10T05:25:05.908512,15.20205175,.00012271,97.4337,269.5877,162.5388,197.5889,0,U,64901,999,5303,.42253728E-4,.847E-5,0
CO3D 2,2025-156D,2026-07-10T14:05:47.340672,15.20198223,.00013194,97.4335,269.8427,88.2788,271.8598,0,U,64902,999,5308,.12019444E-3,.2535E-4,0
CO3D 1,2025-156E,2026-07-10T14:06:00.540864,15.20201949,.00013023,97.4336,269.8428,99.9657,260.1725,0,U,64903,999,5308,.12730529E-3,.2689E-4,0
PRSC-S1,2025-164A,2026-07-10T09:36:31.728672,15.06611759,.00059406,41.1290,157.0571,165.9249,194.1731,0,U,65055,999,5193,.16295211E-3,.228E-4,0
SENTINEL-6B,2025-264A,2026-07-10T02:50:15.264672,12.80930089,.00078778,66.0414,87.5519,268.8168,91.1945,0,U,66514,999,3010,-.35218925E-4,-.69E-6,0
CAS500-3,2025-274F,2026-07-10T06:36:10.338624,14.88376906,.00065732,97.7440,118.8011,51.3120,308.8684,0,U,66655,999,3358,.9098435E-4,.789E-5,0
CSG-3,2026-001A,2026-07-09T17:56:28.955040,14.82149656,.00014993,97.8893,14.0231,92.4764,267.6621,0,U,67304,999,2780,.3215298E-4,.204E-5,0
PRSC-E03,2026-092A,2026-07-10T13:58:47.144640,15.06795235,.00044761,38.0023,311.7121,222.1577,137.8841,0,U,68835,999,1148,.11559457E-3,.1645E-4,0
CAS500-2,2026-100AK,2026-07-10T04:22:24.425760,15.20866161,.00081008,97.3877,88.6034,313.0008,47.0548,0,U,69013,999,1030,.20272055E-3,.4412E-4,0
